start=new Date('2022-12-05T00:00:00.000Z').valueOf();
sats=[{"ECCENTRICITY":"0.00028040","CLASSIFICATION_TYPE":"U","RCS_SIZE":"LARGE","OBJECT_TYPE":"PAYLOAD","LAUNCH_DATE":"2022-05-14","MEAN_ELEMENT_THEORY":"SGP4","MEAN_MOTION_DDOT":"0.0000000000000","SEMIMAJOR_AXIS":"6917.878","SITE":"AFETR","TLE_LINE2":"2 52624  53.2159 218.4636 0002804  21.7571 338.3540 15.08840926 31095","CENTER_NAME":"EARTH","MEAN_MOTION_DOT":"0.00004404","REF_FRAME":"TEME","BSTAR":"0.00029465000000","RA_OF_ASC_NODE":"218.4636","PERIAPSIS":"537.803","ARG_OF_PERICENTER":"21.7571","COUNTRY_CODE":"US","PERIOD":"95.437","ELEMENT_SET_NO":"999","OBJECT_ID":"2022-052AC","NORAD_CAT_ID":"52624","DECAY_DATE":null,"TLE_LINE1":"1 52624U 22052AC  22338.08246541  .00004404  00000-0  29465-3 0  9999","OBJECT_NAME":"STARLINK-4009","EPHEMERIS_TYPE":"0","INCLINATION":"53.2159","TIME_SYSTEM":"UTC","EPOCH":"2022-12-04T01:58:45.011424","APOAPSIS":"541.682","MEAN_MOTION":"15.08840926","MEAN_ANOMALY":"338.3540","REV_AT_EPOCH":"3109","GP_ID":"219522765","FILE":"3681207"},{"OBJECT_NAME":"STARLINK-3988","DECAY_DATE":null,"TLE_LINE1":"1 52625U 22052AD  22338.66390906 -.00000684  00000-0 -24887-4 0  9991","EPHEMERIS_TYPE":"0","OBJECT_ID":"2022-052AD","PERIOD":"95.438","ELEMENT_SET_NO":"999","NORAD_CAT_ID":"52625","MEAN_ANOMALY":"303.7312","REV_AT_EPOCH":"3118","FILE":"3681494","GP_ID":"219556700","INCLINATION":"53.2188","TIME_SYSTEM":"UTC","APOAPSIS":"541.031","EPOCH":"2022-12-04T15:56:01.742784","MEAN_MOTION":"15.08834122","LAUNCH_DATE":"2022-05-14","MEAN_ELEMENT_THEORY":"SGP4","MEAN_MOTION_DDOT":"0.0000000000000","OBJECT_TYPE":"PAYLOAD","ECCENTRICITY":"0.00018330","RCS_SIZE":"LARGE","CLASSIFICATION_TYPE":"U","RA_OF_ASC_NODE":"215.8475","BSTAR":"-0.00002488700000","COUNTRY_CODE":"US","PERIAPSIS":"538.495","ARG_OF_PERICENTER":"56.3854","SEMIMAJOR_AXIS":"6917.898","TLE_LINE2":"2 52625  53.2188 215.8475 0001833  56.3854 303.7312 15.08834122 31183","SITE":"AFETR","REF_FRAME":"TEME","CENTER_NAME":"EARTH","MEAN_MOTION_DOT":"-0.00000684"},{"MEAN_MOTION":"15.08845310","APOAPSIS":"540.929","EPOCH":"2022-12-04T16:11:54.827232","INCLINATION":"53.2177","TIME_SYSTEM":"UTC","GP_ID":"219557453","FILE":"3681494","REV_AT_EPOCH":"3118","MEAN_ANOMALY":"302.0974","NORAD_CAT_ID":"52626","ELEMENT_SET_NO":"999","PERIOD":"95.437","OBJECT_ID":"2022-052AE","EPHEMERIS_TYPE":"0","TLE_LINE1":"1 52626U 22052AE  22338.67494013  .00000683  00000-0  61009-4 0  9991","DECAY_DATE":null,"OBJECT_NAME":"STARLINK-3990","MEAN_MOTION_DOT":"0.00000683","CENTER_NAME":"EARTH","REF_FRAME":"TEME","TLE_LINE2":"2 52626  53.2177 215.8064 0001734  58.0187 302.0974 15.08845310 31181","SITE":"AFETR","SEMIMAJOR_AXIS":"6917.864","ARG_OF_PERICENTER":"58.0187","PERIAPSIS":"538.530","COUNTRY_CODE":"US","BSTAR":"0.00006100900000","RA_OF_ASC_NODE":"215.8064","CLASSIFICATION_TYPE":"U","RCS_SIZE":"LARGE","ECCENTRICITY":"0.00017340","OBJECT_TYPE":"PAYLOAD","MEAN_MOTION_DDOT":"0.0000000000000","MEAN_ELEMENT_THEORY":"SGP4","LAUNCH_DATE":"2022-05-14"},{"OBJECT_ID":"2022-052AF","PERIOD":"95.438","ELEMENT_SET_NO":"999","NORAD_CAT_ID":"52627","OBJECT_NAME":"STARLINK-3992","DECAY_DATE":null,"TLE_LINE1":"1 52627U 22052AF  22338.05671265  .00000497  00000-0  49338-4 0  9994","EPHEMERIS_TYPE":"0","TIME_SYSTEM":"UTC","INCLINATION":"53.2165","APOAPSIS":"541.807","EPOCH":"2022-12-04T01:21:39.972960","MEAN_MOTION":"15.08837374","MEAN_ANOMALY":"326.0019","REV_AT_EPOCH":"3110","FILE":"3681207","GP_ID":"219522015","OBJECT_TYPE":"PAYLOAD","ECCENTRICITY":"0.00029690","RCS_SIZE":"LARGE","CLASSIFICATION_TYPE":"U","LAUNCH_DATE":"2022-05-14","MEAN_ELEMENT_THEORY":"SGP4","MEAN_MOTION_DDOT":"0.0000000000000","SEMIMAJOR_AXIS":"6917.888","TLE_LINE2":"2 52627  53.2165 218.5776 0002969  34.1163 326.0019 15.08837374 31108","SITE":"AFETR","REF_FRAME":"TEME","CENTER_NAME":"EARTH","MEAN_MOTION_DOT":"0.00000497","RA_OF_ASC_NODE":"218.5776","BSTAR":"0.00004933800000","COUNTRY_CODE":"US","PERIAPSIS":"537.699","ARG_OF_PERICENTER":"34.1163"},{"ARG_OF_PERICENTER":"40.4922","PERIAPSIS":"538.028","COUNTRY_CODE":"US","BSTAR":"-0.00001757200000","RA_OF_ASC_NODE":"231.8792","MEAN_MOTION_DOT":"-0.00000568","CENTER_NAME":"EARTH","REF_FRAME":"TEME","TLE_LINE2":"2 52628  53.2189 231.8792 0002499  40.4922 319.6256 15.08836430 30946","SITE":"AFETR","SEMIMAJOR_AXIS":"6917.891","MEAN_MOTION_DDOT":"0.0000000000000","MEAN_ELEMENT_THEORY":"SGP4","LAUNCH_DATE":"2022-05-14","CLASSIFICATION_TYPE":"U","RCS_SIZE":"LARGE","ECCENTRICITY":"0.00024990","OBJECT_TYPE":"PAYLOAD","GP_ID":"219522266","FILE":"3681207","REV_AT_EPOCH":"3094","MEAN_ANOMALY":"319.6256","MEAN_MOTION":"15.08836430","EPOCH":"2022-12-04T10:28:08.971680","APOAPSIS":"541.485","INCLINATION":"53.2189","TIME_SYSTEM":"UTC","EPHEMERIS_TYPE":"0","TLE_LINE1":"1 52628U 22052AG  22338.43621495 -.00000568  00000-0 -17572-4 0  9993","DECAY_DATE":null,"OBJECT_NAME":"STARLINK-4001","NORAD_CAT_ID":"52628","ELEMENT_SET_NO":"999","PERIOD":"95.438","OBJECT_ID":"2022-052AG"},{"OBJECT_ID":"2022-052AH","ELEMENT_SET_NO":"999","PERIOD":"95.438","NORAD_CAT_ID":"52629","OBJECT_NAME":"STARLINK-4022","TLE_LINE1":"1 52629U 22052AH  22338.64920489 -.00000459  00000-0 -10694-4 0  9999","DECAY_DATE":null,"EPHEMERIS_TYPE":"0","EPOCH":"2022-12-04T15:34:51.302496","APOAPSIS":"541.642","INCLINATION":"53.2166","TIME_SYSTEM":"UTC","MEAN_MOTION":"15.08831644","REV_AT_EPOCH":"3118","MEAN_ANOMALY":"327.1793","FILE":"3681494","GP_ID":"219556202","OBJECT_TYPE":"PAYLOAD","RCS_SIZE":"LARGE","CLASSIFICATION_TYPE":"U","ECCENTRICITY":"0.00027050","LAUNCH_DATE":"2022-05-14","MEAN_ELEMENT_THEORY":"SGP4","MEAN_MOTION_DDOT":"0.0000000000000","SITE":"AFETR","TLE_LINE2":"2 52629  53.2166 215.9198 0002705  32.9367 327.1793 15.08831644 31183","SEMIMAJOR_AXIS":"6917.906","REF_FRAME":"TEME","MEAN_MOTION_DOT":"-0.00000459","CENTER_NAME":"EARTH","RA_OF_ASC_NODE":"215.9198","BSTAR":"-0.00001069400000","COUNTRY_CODE":"US","ARG_OF_PERICENTER":"32.9367","PERIAPSIS":"537.900"},{"EPHEMERIS_TYPE":"0","OBJECT_NAME":"STARLINK-3989","TLE_LINE1":"1 52630U 22052AJ  22338.66023060 -.00001015  00000-0 -45623-4 0  9991","DECAY_DATE":null,"NORAD_CAT_ID":"52630","OBJECT_ID":"2022-052AJ","ELEMENT_SET_NO":"999","PERIOD":"95.438","FILE":"3681494","GP_ID":"219556954","REV_AT_EPOCH":"3118","MEAN_ANOMALY":"325.9945","MEAN_MOTION":"15.08837062","APOAPSIS":"541.940","EPOCH":"2022-12-04T15:50:43.923840","INCLINATION":"53.2176","TIME_SYSTEM":"UTC","MEAN_ELEMENT_THEORY":"SGP4","MEAN_MOTION_DDOT":"0.0000000000000","LAUNCH_DATE":"2022-05-14","OBJECT_TYPE":"PAYLOAD","CLASSIFICATION_TYPE":"U","RCS_SIZE":"LARGE","ECCENTRICITY":"0.00031590","COUNTRY_CODE":"US","ARG_OF_PERICENTER":"34.1250","PERIAPSIS":"537.569","RA_OF_ASC_NODE":"215.8726","BSTAR":"-0.00004562300000","REF_FRAME":"TEME","MEAN_MOTION_DOT":"-0.00001015","CENTER_NAME":"EARTH","TLE_LINE2":"2 52630  53.2176 215.8726 0003159  34.1250 325.9945 15.08837062 31186","SITE":"AFETR","SEMIMAJOR_AXIS":"6917.889"},{"OBJECT_ID":"2022-052AK","ELEMENT_SET_NO":"999","PERIOD":"95.437","NORAD_CAT_ID":"52631","OBJECT_NAME":"STARLINK-3794","TLE_LINE1":"1 52631U 22052AK  22338.64551369 -.00000307  00000-0 -11439-5 0  9990","DECAY_DATE":null,"EPHEMERIS_TYPE":"0","APOAPSIS":"541.652","EPOCH":"2022-12-04T15:29:32.382816","TIME_SYSTEM":"UTC","INCLINATION":"53.2192","MEAN_MOTION":"15.08841196","REV_AT_EPOCH":"3119","MEAN_ANOMALY":"325.4400","FILE":"3681494","GP_ID":"219557195","OBJECT_TYPE":"PAYLOAD","CLASSIFICATION_TYPE":"U","RCS_SIZE":"LARGE","ECCENTRICITY":"0.00027610","LAUNCH_DATE":"2022-05-14","MEAN_MOTION_DDOT":"0.0000000000000","MEAN_ELEMENT_THEORY":"SGP4","SITE":"AFETR","TLE_LINE2":"2 52631  53.2192 215.9368 0002761  34.6772 325.4400 15.08841196 31195","SEMIMAJOR_AXIS":"6917.877","REF_FRAME":"TEME","MEAN_MOTION_DOT":"-0.00000307","CENTER_NAME":"EARTH","RA_OF_ASC_NODE":"215.9368","BSTAR":"-0.00000114390000","COUNTRY_CODE":"US","ARG_OF_PERICENTER":"34.6772","PERIAPSIS":"537.832"},{"CENTER_NAME":"EARTH","MEAN_MOTION_DOT":"-0.00000376","REF_FRAME":"TEME","SEMIMAJOR_AXIS":"6917.914","SITE":"AFETR","TLE_LINE2":"2 52632  53.2187 218.2549 0002668  37.7830 322.3349 15.08829116 31110","PERIAPSIS":"537.933","ARG_OF_PERICENTER":"37.7830","COUNTRY_CODE":"US","BSTAR":"-0.00000547520000","RA_OF_ASC_NODE":"218.2549","ECCENTRICITY":"0.00026680","RCS_SIZE":"LARGE","CLASSIFICATION_TYPE":"U","OBJECT_TYPE":"PAYLOAD","MEAN_MOTION_DDOT":"0.0000000000000","MEAN_ELEMENT_THEORY":"SGP4","LAUNCH_DATE":"2022-05-14","MEAN_MOTION":"15.08829116","INCLINATION":"53.2187","TIME_SYSTEM":"UTC","APOAPSIS":"541.624","EPOCH":"2022-12-04T03:02:21.721920","GP_ID":"219522766","FILE":"3681207","MEAN_ANOMALY":"322.3349","REV_AT_EPOCH":"3111","NORAD_CAT_ID":"52632","PERIOD":"95.438","ELEMENT_SET_NO":"999","OBJECT_ID":"2022-052AL","EPHEMERIS_TYPE":"0","DECAY_DATE":null,"TLE_LINE1":"1 52632U 22052AL  22338.12664030 -.00000376  00000-0 -54752-5 0  9995","OBJECT_NAME":"STARLINK-3995"},{"DECAY_DATE":null,"TLE_LINE1":"1 52633U 22052AM  22338.63447793  .00000413  00000-0  44073-4 0  9991","OBJECT_NAME":"STARLINK-3994","EPHEMERIS_TYPE":"0","PERIOD":"95.438","ELEMENT_SET_NO":"999","OBJECT_ID":"2022-052AM","NORAD_CAT_ID":"52633","MEAN_ANOMALY":"319.6653","REV_AT_EPOCH":"3119","GP_ID":"219556701","FILE":"3681494","INCLINATION":"53.2185","TIME_SYSTEM":"UTC","APOAPSIS":"541.320","EPOCH":"2022-12-04T15:13:38.893152","MEAN_MOTION":"15.08830650","LAUNCH_DATE":"2022-05-14","MEAN_ELEMENT_THEORY":"SGP4","MEAN_MOTION_DDOT":"0.0000000000000","ECCENTRICITY":"0.00022350","RCS_SIZE":"LARGE","CLASSIFICATION_TYPE":"U","OBJECT_TYPE":"PAYLOAD","BSTAR":"0.00004407300000","RA_OF_ASC_NODE":"215.9781","PERIAPSIS":"538.228","ARG_OF_PERICENTER":"40.4505","COUNTRY_CODE":"US","SEMIMAJOR_AXIS":"6917.909","SITE":"AFETR","TLE_LINE2":"2 52633  53.2185 215.9781 0002235  40.4505 319.6653 15.08830650 31191","CENTER_NAME":"EARTH","MEAN_MOTION_DOT":"0.00000413","REF_FRAME":"TEME"}];
